AOR-E (EGNOS/PRN 120)   
1 24307U 96053A   13021.32474737 -.00000124  00000-0  10000-3 0  5520
2 24307   0.0791  22.3363 0005870 267.9655 291.9132  1.00270835 59966
ARTEMIS (EGNOS/PRN 124) 
1 26863U 01029A   13022.26939821  .00000114  00000-0  10000-3 0  4260
2 26863  10.3537  51.6330 0002777 264.0780 284.4722  1.00276595 43331
MTSAT-1R (MSAS/PRN 129) 
1 28622U 05006A   13022.58036485 -.00000280  00000-0  10000-3 0  8093
2 28622   0.0174 204.2871 0001034  77.8002 188.9361  1.00271074 28941
CRE (WAAS/PRN 138)      
1 28868U 05036A   13022.34063927 -.00000074  00000-0  10000-3 0  1301
2 28868   0.0201  45.0433 0001554 236.7529 215.3457  1.00272159 27086
CRW (WAAS/PRN 135)      
1 28884U 05041A   13021.36610578  .00000078  00000-0  10000-3 0  4380
2 28884   0.0124 329.2357 0001228 299.5274 210.9030  1.00273031 26652
IOR-W (EGNOS/PRN 126)   
1 28899U 05044A   13022.81830464  .00000141  00000-0  10000-3 0  5481
2 28899   2.2642 345.4976 0002828 313.5103 142.9573  1.00273363 26440
MTSAT-2 (MSAS/PRN 137)  
1 28937U 06004A   13022.44275904 -.00000243  00000-0  10000-3 0  3237
2 28937   0.0384 266.1138 0003297  49.6480 110.5784  1.00270052 25421
AMR (WAAS/PRN 133)      
1 33278U 08039A   13022.48286928 -.00000136  00000-0  10000-3 0   242
2 33278   3.0083 345.3805 0003034 306.4132 266.3663  1.00271998 16260
QZS-1 (QZSS/PRN 183)    
1 37158U 10045A   13021.72784319 -.00000115  00000-0  10000-3 0  4652
2 37158  40.6574 182.7225 0748711 269.9877  67.3895  1.00275066  8671
GSAT 8 (GAGAN/PRN 127)  
1 37605U 11022A   13021.88088094  .00000084  00000-0  10000-3 0  3809
2 37605   0.0572  87.5415 0007156 185.9539 220.0545  1.00273484  6177
LUCH 5A (SDCM/PRN 140)  
1 37951U 11074B   13022.74414579 -.00000042  00000-0  00000+0 0  2659
2 37951   4.0127 261.6707 0004316 357.2205 298.2812  1.00273851  4113
